NORAD_CAT_ID,OBJECT_NAME,OBJECT_TYPE,EPOCH,MEAN_MOTION,ECCENTRICITY,INCLINATION,RA_OF_ASC_NODE,ARG_OF_PERICENTER,MEAN_ANOMALY,BSTAR,MEAN_MOTION_DOT,MEAN_MOTION_DDOT,TLE_LINE0,TLE_LINE1,TLE_LINE2,SEMIMAJOR_AXIS,PERIOD,APOGEE,PERIGEE,DECAYED
55401.0,STARLINK-5076,PAYLOAD,2023-08-28 12:13:16,14.98318411,0.0002905,69.9989,234.5782,257.3645,102.7189,0.00018698,2.138e-05,0.0,0 STARLINK-5076,1 55401U 23014L   23240.50921350  .00002138  00000-0  18698-3 0  9990,2 55401  69.9989 234.5782 0002905 257.3645 102.7189 14.98318411 33628,6950.229,96.108,574.113,570.075,0.0
55401.0,STARLINK-5076,PAYLOAD,2023-08-29 01:02:20,14.98329358,0.000311,69.9989,233.2316,268.7085,91.3718,-1.0163e-05,-2.14e-06,0.0,0 STARLINK-5076,1 55401U 23014L   23241.04329062 -.00000214  00000-0 -10163-4 0  9997,2 55401  69.9989 233.2316 0003110 268.7085  91.3718 14.98329358 32767,6950.195,96.107,574.221,569.898,0.0
55401.0,STARLINK-5076,PAYLOAD,2023-08-29 12:15:16,14.98331371,0.0003114,69.9991,232.0535,269.6299,90.4504,7.1024e-06,-8e-08,0.0,0 STARLINK-5076,1 55401U 23014L   23241.51060878 -.00000008  00000-0  71024-5 0  9990,2 55401  69.9991 232.0535 0003114 269.6299  90.4504 14.98331371 33774,6950.189,96.107,574.218,569.889,0.0
55401.0,STARLINK-5076,PAYLOAD,2023-08-30 01:04:21,14.98328981,0.0003107,69.9992,230.707,269.4961,90.5842,1.392e-05,7.3e-07,0.0,0 STARLINK-5076,1 55401U 23014L   23242.04468991  .00000073  00000-0  13920-4 0  9998,2 55401  69.9992 230.7070 0003107 269.4961  90.5842 14.98328981 32914,6950.196,96.107,574.22,569.902,0.0
55401.0,STARLINK-5076,PAYLOAD,2023-08-30 17:05:42,14.98310952,0.0003013,69.9994,229.024,277.1281,82.9536,0.00033985,3.962e-05,0.0,0 STARLINK-5076,1 55401U 23014L   23242.71229503  .00003962  00000-0  33985-3 0  9998,2 55401  69.9994 229.0240 0003013 277.1281  82.9536 14.98310952 33952,6950.252,96.108,574.211,570.023,0.0
55401.0,STARLINK-5076,PAYLOAD,2023-08-31 10:43:10,14.98332857,0.0003098,69.9994,227.1724,270.5047,89.5757,3.0377e-05,2.69e-06,0.0,0 STARLINK-5076,1 55401U 23014L   23243.44664613  .00000269  00000-0  30377-4 0  9994,2 55401  69.9994 227.1724 0003098 270.5047  89.5757 14.98332857 33123,6950.184,96.107,574.202,569.896,0.0
55401.0,STARLINK-5076,PAYLOAD,2023-09-01 05:56:47,14.98329639,0.0003189,69.9999,225.1538,266.3301,93.7494,-2.6903e-05,-4.14e-06,0.0,0 STARLINK-5076,1 55401U 23014L   23244.24776888 -.00000414  00000-0 -26903-4 0  9995,2 55401  69.9999 225.1538 0003189 266.3301  93.7494 14.98329639 34182,6950.194,96.107,574.275,569.843,0.0
55401.0,STARLINK-5076,PAYLOAD,2023-09-01 15:33:34,14.98355802,0.0002972,70.001,224.1427,273.4407,86.6412,-0.00043254,-5.254e-05,0.0,0 STARLINK-5076,1 55401U 23014L   23244.64832081 -.00005254  00000-0 -43254-3 0  9991,2 55401  70.0010 224.1427 0002972 273.4407  86.6412 14.98355802 33305,6950.113,96.105,574.044,569.913,0.0
55401.0,STARLINK-5076,PAYLOAD,2023-09-01 21:58:07,14.98331699,0.000296,70.0003,223.4695,271.5994,88.4826,8.1287e-06,4e-08,0.0,0 STARLINK-5076,1 55401U 23014L   23244.91536632  .00000004  00000-0  81287-5 0  9990,2 55401  70.0003 223.4695 0002960 271.5994  88.4826 14.98331699 34288,6950.188,96.107,574.11,569.995,0.0
55401.0,STARLINK-5076,PAYLOAD,2023-09-02 09:11:03,14.98333394,0.000293,69.9999,222.2909,272.2138,87.8685,2.4095e-05,1.95e-06,0.0,0 STARLINK-5076,1 55401U 23014L   23245.38268384  .00000195  00000-0  24095-4 0  9992,2 55401  69.9999 222.2909 0002930 272.2138  87.8685 14.98333394 34357,6950.182,96.107,574.084,570.011,0.0
55401.0,STARLINK-5076,PAYLOAD,2023-09-02 15:35:36,14.98332486,0.0002926,69.9993,221.6174,272.2611,87.8213,1.3729e-05,7.1e-07,0.0,0 STARLINK-5076,1 55401U 23014L   23245.64972411  .00000071  00000-0  13729-4 0  9999,2 55401  69.9993 221.6174 0002926 272.2611  87.8213 14.98332486 34391,6950.185,96.107,574.084,570.017,0.0
55401.0,STARLINK-5076,PAYLOAD,2023-09-03 01:12:24,14.98330694,0.0002955,69.9998,220.6081,269.4257,90.6563,-3.5433e-06,-1.35e-06,0.0,0 STARLINK-5076,1 55401U 23014L   23246.05028489 -.00000135  00000-0 -35433-5 0  9992,2 55401  69.9998 220.6081 0002955 269.4257  90.6563 14.98330694 33510,6950.191,96.107,574.11,570.002,0.0
55401.0,STARLINK-5076,PAYLOAD,2023-09-03 07:36:56,14.98332318,0.0002959,70.0001,219.9352,268.185,91.897,1.5292e-05,8.9e-07,0.0,0 STARLINK-5076,1 55401U 23014L   23246.31732300  .00000089  00000-0  15292-4 0  9991,2 55401  70.0001 219.9352 0002959 268.1850  91.8970 14.98332318 34497,6950.186,96.107,574.107,569.994,0.0
55401.0,STARLINK-5076,PAYLOAD,2023-09-04 01:14:26,14.98322429,0.0002934,70.0002,218.0835,271.0356,89.0466,-0.00010246,-1.315e-05,0.0,0 STARLINK-5076,1 55401U 23014L   23247.05169342 -.00001315  00000-0 -10246-3 0  9991,2 55401  70.0002 218.0835 0002934 271.0356  89.0466 14.98322429 33660,6950.216,96.107,574.12,570.042,0.0
55401.0,STARLINK-5076,PAYLOAD,2023-09-04 09:15:06,14.9832464,0.0002963,70.0004,217.2421,269.75,90.3319,-8.746e-05,-1.136e-05,0.0,0 STARLINK-5076,1 55401U 23014L   23247.38549283 -.00001136  00000-0 -87460-4 0  9997,2 55401  70.0004 217.2421 0002963 269.7500  90.3319 14.98324640 34650,6950.209,96.107,574.134,570.015,0.0
55401.0,STARLINK-5076,PAYLOAD,2023-09-04 15:39:38,14.98325215,0.0003017,70.0004,216.569,270.3905,89.6908,-4.0801e-05,-5.8e-06,0.0,0 STARLINK-5076,1 55401U 23014L   23247.65253181 -.00000580  00000-0 -40801-4 0  9996,2 55401  70.0004 216.5690 0003017 270.3905  89.6908 14.98325215 33752,6950.208,96.107,574.17,569.976,0.0
55401.0,STARLINK-5076,PAYLOAD,2023-09-05 09:17:07,14.98330213,0.0002909,70.0004,214.7171,266.9092,93.1734,3.6615e-05,3.44e-06,0.0,0 STARLINK-5076,1 55401U 23014L   23248.38688766  .00000344  00000-0  36615-4 0  9992,2 55401  70.0004 214.7171 0002909 266.9092  93.1734 14.98330213 33866,6950.192,96.107,574.079,570.035,0.0
55401.0,STARLINK-5076,PAYLOAD,2023-09-06 09:19:07,14.98335998,0.0003041,70.0005,212.1923,271.0767,89.0044,0.00017181,1.958e-05,0.0,0 STARLINK-5076,1 55401U 23014L   23249.38827931  .00001958  00000-0  17181-3 0  9990,2 55401  70.0005 212.1923 0003041 271.0767  89.0044 14.98335998 34019,6950.174,96.107,574.153,569.926,0.0
55401.0,STARLINK-5076,PAYLOAD,2023-09-07 07:45:01,14.98328452,0.0002868,70.0011,209.8355,271.5157,88.5673,-1.8535e-05,-3.14e-06,0.0,0 STARLINK-5076,1 55401U 23014L   23250.32292877 -.00000314  00000-0 -18535-4 0  9993,2 55401  70.0011 209.8355 0002868 271.5157  88.5673 14.98328452 34156,6950.198,96.107,574.056,570.069,0.0
55401.0,STARLINK-5076,PAYLOAD,2023-09-08 06:10:53,14.98331285,0.0002356,70.0032,207.481,261.0649,99.0243,-0.00010129,-1.301e-05,0.0,0 STARLINK-5076,1 55401U 23014L   23251.25756846 -.00001301  00000-0 -10129-3 0  9994,2 55401  70.0032 207.4810 0002356 261.0649  99.0243 14.98331285 35239,6950.189,96.107,573.691,570.416,0.0
55401.0,STARLINK-5076,PAYLOAD,2023-09-09 01:24:30,14.98326507,0.0002696,70.0016,205.4612,260.0409,100.0446,-1.772e-05,-3.04e-06,0.0,0 STARLINK-5076,1 55401U 23014L   23252.05868815 -.00000304  00000-0 -17720-4 0  9990,2 55401  70.0016 205.4612 0002696 260.0409 100.0446 14.98326507 34417,6950.204,96.107,573.942,570.195,0.0
55401.0,STARLINK-5076,PAYLOAD,2023-09-09 07:49:02,14.98329918,0.0002821,70.0013,204.7878,264.0393,96.0444,2.8906e-05,2.52e-06,0.0,0 STARLINK-5076,1 55401U 23014L   23252.32572517  .00000252  00000-0  28906-4 0  9999,2 55401  70.0013 204.7878 0002821 264.0393  96.0444 14.98329918 35395,6950.193,96.107,574.019,570.097,0.0
55401.0,STARLINK-5076,PAYLOAD,2023-09-10 01:26:31,14.98354925,0.000308,70.0015,202.9368,265.7893,94.2914,-0.0003805,-4.633e-05,0.0,0 STARLINK-5076,1 55401U 23014L   23253.06008277 -.00004633  00000-0 -38050-3 0  9997,2 55401  70.0015 202.9368 0003080 265.7893  94.2914 14.98354925 34568,6950.116,96.105,574.121,569.84,0.0
55401.0,STARLINK-5076,PAYLOAD,2023-09-10 06:14:55,14.98333502,0.0002818,70.001,202.4307,268.25,91.8337,4.893e-05,4.91e-06,0.0,0 STARLINK-5076,1 55401U 23014L   23253.26036271  .00000491  00000-0  48930-4 0  9999,2 55401  70.0010 202.4307 0002818 268.2500  91.8337 14.98333502 34595,6950.182,96.107,574.006,570.089,0.0
55401.0,STARLINK-5076,PAYLOAD,2023-09-11 03:04:38,14.98354134,0.0002658,70.0017,200.2437,265.5785,94.5071,0.00028233,3.279e-05,0.0,0 STARLINK-5076,1 55401U 23014L   23254.12822046  .00003279  00000-0  28233-3 0  9998,2 55401  70.0017 200.2437 0002658 265.5785  94.5071 14.98354134 34723,6950.118,96.105,573.831,570.136,0.0
55401.0,STARLINK-5076,PAYLOAD,2023-09-11 07:53:02,14.98356921,0.0002819,70.0014,199.7385,271.1142,88.9694,0.00031835,3.71e-05,0.0,0 STARLINK-5076,1 55401U 23014L   23254.32849618  .00003710  00000-0  31835-3 0  9996,2 55401  70.0014 199.7385 0002819 271.1142  88.9694 14.98356921 35694,6950.11,96.105,573.934,570.015,0.0
55401.0,STARLINK-5076,PAYLOAD,2023-09-11 14:17:36,14.98329788,0.000267,70.0015,199.0651,272.0743,88.011,-4.7261e-05,-6.57e-06,0.0,0 STARLINK-5076,1 55401U 23014L   23254.59555974 -.00000657  00000-0 -47261-4 0  9994,2 55401  70.0015 199.0651 0002670 272.0743  88.0110 14.98329788 34791,6950.194,96.107,573.914,570.203,0.0
55401.0,STARLINK-5076,PAYLOAD,2023-09-12 06:18:57,14.98327677,0.0002908,70.0015,197.3811,268.5367,91.5459,-8.1269e-05,-1.062e-05,0.0,0 STARLINK-5076,1 55401U 23014L   23255.26316127 -.00001062  00000-0 -81269-4 0  9991,2 55401  70.0015 197.3811 0002908 268.5367  91.5459 14.98327677 35832,6950.2,96.107,574.086,570.044,0.0
55401.0,STARLINK-5076,PAYLOAD,2023-09-12 20:44:09,14.98339519,0.000284,70.0016,195.8669,272.5425,87.5409,-0.00028136,-3.449e-05,0.0,0 STARLINK-5076,1 55401U 23014L   23255.86400181 -.00003449  00000-0 -28136-3 0  9995,2 55401  70.0016 195.8669 0002840 272.5425  87.5409 14.98339519 35920,6950.163,96.106,574.002,570.055,0.0
55401.0,STARLINK-5076,PAYLOAD,2023-09-13 03:08:42,14.98314051,0.000236,70.0015,195.1944,271.5182,88.5706,0.00025303,2.926e-05,0.0,0 STARLINK-5076,1 55401U 23014L   23256.13104224  .00002926  00000-0  25303-3 0  9995,2 55401  70.0015 195.1944 0002360 271.5182  88.5706 14.98314051 35020,6950.242,96.108,573.747,570.467,0.0
